AO13sm
1 30000U 88051B   94221.17750900  .00000000  00000-0  10000-4 0    11
2 30000  57.7605 237.5698 7219410 347.6944   1.4303  2.09720300 47124
OSCAR10
1 14129U 83058B   94328.80346848 -.00000090  00000-0  10000-3 0  3288
2 14129  26.7355 296.4176 6023898 230.1525  59.2733  2.05880748 58123
UOSAT2
1 14781U 84021B   94335.55926704  .00000214  00000-0  43967-4 0  7570
2 14781  97.7819 342.4224 0012950  92.5120 267.7567 14.69277448574885
MIR
1 16609U 86017A   94339.23503712  .00005895  00000-0  83274-4 0  8607
2 16609  51.6493  50.0286 0002632 344.1834  15.9076 15.58130919502673
RS-10/11
1 18129U 87054A   94339.11467096  .00000032  00000-0  18634-4 0  9954
2 18129  82.9253 202.5013 0010335 273.3787  86.6186 13.72345211373359
AO-13
1 19216U 88051B   94333.70699234 -.00000472  00000-0  10000-4 0  9970
2 19216  57.6540 217.5974 7247486 355.9625   0.6416  2.09726205 17981
UO-14
1 20437U 90005B   94338.26943105  .00000022  00000-0  25370-4 0   577
2 20437  98.5835  60.6695 0011892  53.4486 306.7786 14.29866118253899
UO-15
1 20438U 90005C   94338.77551886 -.00000002  00000-0  16379-4 0  8559
2 20438  98.5818  59.9394 0011041  55.2837 304.9383 14.29191898253871
DO-17
1 20440U 90005E   94338.25628497  .00000016  00000-0  23097-4 0  8568
2 20440  98.5940  62.4634 0012372  52.4590 307.7711 14.30060436253926
WO-18
1 20441U 90005F   94338.23473232  .00000017  00000-0  23327-4 0  8592
2 20441  98.5927  62.4282 0012930  52.8907 307.3455 14.30033356253929
LO-19
1 20442U 90005G   94338.27129455  .00000024  00000-0  26328-4 0  8550
2 20442  98.5946  62.7670 0013195  52.3994 307.8381 14.30132360253940
FO-20
1 20480U 90013C   94338.80415905 -.00000056  00000-0 -45938-4 0  7529
2 20480  99.0635  98.5992 0540537 313.2398  42.4758 12.83227956226019
AO-21
1 21087U 91006A   94337.49406880  .00000093  00000-0  82657-4 0  5449
2 21087  82.9429  17.4150 0035300 334.5810  25.3609 13.74547923192841
RS-12/13
1 21089U 91007A   94337.25003749  .00000051  00000-0  37934-4 0  7582
2 21089  82.9222 246.0610 0029983   0.9560 359.1648 13.74050867191869
UO-22
1 21575U 91050B   94338.17947503  .00000041  00000-0  28241-4 0  5619
2 21575  98.4203  49.1024 0007903 136.1330 224.0487 14.36946765177490
KO-23
1 22077U 92052B   94338.04778060 -.00000037  00000-0  10000-3 0  4546
2 22077  66.0825 284.3379 0014788 246.4057 113.5404 12.86289507108633
ARSENE
1 22654U 93031B   94333.74101937 -.00000090  00000-0  00000+0 0  2982
2 22654   2.1861  91.6618 2910397 197.8917 148.7015  1.42202939  3554
AO-27
1 22825U 93061C   94338.19426940  .00000002  00000-0  18415-4 0  3539
2 22825  98.6386  52.1637 0009581  71.1477 289.0739 14.27643610 61947
ITAMSAT
1 22828U 93061F   94338.69463345  .00000019  00000-0  25225-4 0  3307
2 22828  98.6359  52.7478 0011116  58.9651 301.2615 14.28077886 30115
KO-25
1 22830U 93061H   94338.69548808  .00000029  00000-0  28927-4 0  3604
2 22830  98.5394  48.1431 0012478  39.2157 320.9921 14.28074012 62031
